[{"OBJECT_NAME":"SKYKRAFT-1A","OBJECT_ID":"2023-001AX","EPOCH":"2026-03-09T17:03:19.828224","MEAN_MOTION":15.28083228,"ECCENTRICITY":0.00112767,"INCLINATION":97.3349,"RA_OF_ASC_NODE":127.629,"ARG_OF_PERICENTER":121.5092,"MEAN_ANOMALY":238.7251,"EPHEMERIS_TYPE":0,"CLASSIFICATION_TYPE":"U","NORAD_CAT_ID":55054,"ELEMENT_SET_NO":999,"REV_AT_EPOCH":17652,"BSTAR":0.0003006872,"MEAN_MOTION_DOT":8.177e-5,"MEAN_MOTION_DDOT":0},{"OBJECT_NAME":"STARLINK-35835","OBJECT_ID":"2025-268N","EPOCH":"2026-03-09T03:53:51.352224","MEAN_MOTION":15.27575703,"ECCENTRICITY":0.00013269,"INCLINATION":43.003,"RA_OF_ASC_NODE":349.6479,"ARG_OF_PERICENTER":299.2565,"MEAN_ANOMALY":60.8154,"EPHEMERIS_TYPE":0,"CLASSIFICATION_TYPE":"U","NORAD_CAT_ID":66569,"ELEMENT_SET_NO":999,"REV_AT_EPOCH":1788,"BSTAR":0.0011639381,"MEAN_MOTION_DOT":0.00031901,"MEAN_MOTION_DDOT":0}]
