SKYKRAFT-1A             
1 55054U 23001AX  26068.71064616  .00008177  00000+0  30069-3 0  9991
2 55054  97.3349 127.6290 0011277 121.5092 238.7251 15.28083228176529
STARLINK-35835          
1 66569U 25268N   26068.16239991  .00031901  00000+0  11639-2 0  9992
2 66569  43.0030 349.6479 0001326 299.2565  60.8154 15.27575703 17886
